GLOBALSTAR M069         
1 31573U 07020C   26156.12484609 -.00000054  00000+0  35354-3 0  9994
2 31573  52.0040 286.2670 0002558 123.7956  46.8206 12.23470904877321
GLOBALSTAR M072         
1 31574U 07020D   26156.21317016 -.00000088  00000+0 -48235-4 0  9993
2 31574  51.9904 132.1230 0001355 298.9516  74.2946 11.91658455873551
GLOBALSTAR M066         
1 32265U 07048C   26156.12354432 -.00000085  00000+0  78648-4 0  9991
2 32265  51.9583  92.5424 0005255  18.0830 355.9053 12.30389144858741
GLOBALSTAR M079         
1 37188U 10054A   26155.15390120 -.00000118  00000+0 -81425-4 0  9992
2 37188  52.0011 148.3448 0000385 346.6846  91.9604 12.62265964720903
GLOBALSTAR M074         
1 37189U 10054B   26155.75516876 -.00000117  00000+0 -74031-4 0  9991
2 37189  51.9988 145.7813 0000273  46.9074 125.4420 12.62268455721583
GLOBALSTAR M076         
1 37190U 10054C   26156.22156978 -.00000106  00000+0 -12183-4 0  9997
2 37190  52.0012 144.5631 0000435  26.5802 346.5630 12.62261853721363
GLOBALSTAR M077         
1 37191U 10054D   26154.70301275 -.00000059  00000+0  34246-3 0  9990
2 37191  51.9941 213.5218 0002958 148.4860   3.7641 11.67547589719561
GLOBALSTAR M075         
1 37192U 10054E   26154.80216435 -.00000097  00000+0  35971-4 0  9994
2 37192  51.9925 190.9481 0000175 153.8116 185.8286 12.62267381720246
GLOBALSTAR M073         
1 37193U 10054F   26156.15599338 -.00000102  00000+0  12522-4 0  9995
2 37193  52.0051 100.9143 0000675  22.8970 350.5002 12.62262085722417
GLOBALSTAR M083         
1 37739U 11033A   26156.03073747 -.00000087  00000+0  95340-4 0  9998
2 37739  51.9870  49.5410 0000770  44.2958  61.0295 12.62262870691410
GLOBALSTAR M088         
1 37740U 11033B   26155.76693094 -.00000091  00000+0  72293-4 0  9999
2 37740  52.0228 316.7443 0000872 108.2753 355.8743 12.62268474686921
GLOBALSTAR M091         
1 37741U 11033C   26156.11151227 -.00000077  00000+0  14957-3 0  9993
2 37741  52.0006 278.6781 0000564 132.0723  39.8018 12.62263633687755
GLOBALSTAR M085         
1 37742U 11033D   26152.26726767 -.00000069  00000+0  19580-3 0  9991
2 37742  52.0122 241.6600 0000350 160.3418 234.3293 12.62263613687781
GLOBALSTAR M081         
1 37743U 11033E   26154.52646269 -.00000071  00000+0  18541-3 0  9990
2 37743  51.9951 237.2362 0000387 127.5431 337.7826 12.62264700688213
GLOBALSTAR M089         
1 37744U 11033F   26155.27278579 -.00000096  00000+0  42164-4 0  9995
2 37744  51.9906 189.1254 0000399 109.4449 329.6980 12.62266923689154
GLOBALSTAR M084         
1 38040U 11080A   26155.91449317 -.00000081  00000+0  12559-3 0  9996
2 38040  52.0023  54.6438 0000969  67.4247 349.1092 12.62267503667217
GLOBALSTAR M080         
1 38041U 11080B   26156.05534244 -.00000099  00000+0  26150-4 0  9999
2 38041  52.0072  55.9288 0000244  66.5708  40.2928 12.62269115667350
GLOBALSTAR M082         
1 38042U 11080C   26155.74710769 -.00000089  00000+0  84429-4 0  9995
2 38042  52.0097  12.3672 0000518  84.4581 351.1958 12.62269794668029
GLOBALSTAR M092         
1 38043U 11080D   26156.10307697 -.00000114  00000+0 -54625-4 0  9994
2 38043  52.0081 101.6795 0000450  44.9712 328.0739 12.62266790666529
GLOBALSTAR M090         
1 38044U 11080E   26154.93130786 -.00000090  00000+0  78936-4 0  9990
2 38044  52.0145   8.8022 0000773  72.7186 132.9497 12.62268844668037
GLOBALSTAR M086         
1 38045U 11080F   26154.06385596 -.00000090  00000+0  74831-4 0  9996
2 38045  51.9919  11.3954 0001565  43.1345  78.7981 12.62286398667877
GLOBALSTAR M097         
1 39072U 13005A   26155.65160267 -.00000100  00000+0  21470-4 0  9991
2 39072  52.0053 281.4942 0000503 122.1604 237.9312 12.62251206615323
GLOBALSTAR M093         
1 39073U 13005B   26156.02092354 -.00000078  00000+0  14358-3 0  9995
2 39073  52.0113 273.7130 0000361 105.5962 254.4945 12.62265561615323
GLOBALSTAR M094         
1 39074U 13005C   26155.78330308 -.00000102  00000+0  12073-4 0  9993
2 39074  51.9934 188.5662 0000097 305.5315  54.5542 12.62268511616901
GLOBALSTAR M096         
1 39075U 13005D   26155.71756021 -.00000068  00000+0  20148-3 0  9993
2 39075  52.0066 237.5578 0000279 156.7854 203.3025 12.62265341615814
GLOBALSTAR M078         
1 39076U 13005E   26153.79009236 -.00000100  00000+0  22146-4 0  9997
2 39076  51.9888 327.4521 0000688 179.3666 180.7202 12.62260079614196
GLOBALSTAR M095         
1 39077U 13005F   26156.19240852 -.00000093  00000+0  62223-4 0  9997
2 39077  52.0094 317.7242 0000414 120.4467 239.6441 12.62263322614354
GLOBALSTAR M087         
1 52888U 22064A   26156.04733726 -.00000101  00000+0  14184-4 0  9991
2 52888  51.9987  99.4106 0000487   8.7215 351.3660 12.62268802189608
